{"type": "FeatureCollection", "features": [ {"type": "Feature", "properties": {"norad_id": 34001, "name": "COSMOS 2251 DEB", "group": "cosmos-2251-debris", "lat": -1.7191193706248806, "lon": 76.21324755364016, "alt_km": 783.8449327786902, "timestamp": "2025-12-26T19:22:39.302709+00:00", "meta": {"OBJECT_NAME": "COSMOS 2251 DEB", "OBJECT_ID": "1993-036GL", "EPOCH": "2025-12-26T02:24:35.131104", "MEAN_MOTION": 14.37113172, "ECCENTRICITY": 0.00205, "INCLINATION": 74.0384, "RA_OF_ASC_NODE": 257.0206, "ARG_OF_PERICENTER": 335.395, "MEAN_ANOMALY": 150.1562, "EPHEMERIS_TYPE": 0, "CLASSIFICATION_TYPE": "U", "NORAD_CAT_ID": 34001, "ELEMENT_SET_NO": 999, "REV_AT_EPOCH": 88338, "BSTAR": 0.00016242513, "MEAN_MOTION_DOT": 4.57e-06, "MEAN_MOTION_DDOT": 0}, "tle": {"line1": "1 34001U 93036GL  25360.10040661  .00000457  00000+0  16243-3 0  9997", "line2": "2 34001  74.0384 257.0206 0020500 335.3950 150.1562 14.37113172883383"}}, "geometry": {"type": "Point", "coordinates": [76.21324755364016, -1.7191193706248806]}}, {"type": "Feature", "properties": {"norad_id": 34003, "name": "COSMOS 2251 DEB", "group": "cosmos-2251-debris", "lat": -73.98981817898733, "lon": 165.6454325893483, "alt_km": 992.204009690292, "timestamp": "2025-12-26T19:22:39.302719+00:00", "meta": {"OBJECT_NAME": "COSMOS 2251 DEB", "OBJECT_ID": "1993-036GN", "EPOCH": "2025-12-25T19:31:29.334144", "MEAN_MOTION": 13.84221361, "ECCENTRICITY": 0.02753646, "INCLINATION": 74.0775, "RA_OF_ASC_NODE": 263.1391, "ARG_OF_PERICENTER": 12.2095, "MEAN_ANOMALY": 348.5523, "EPHEMERIS_TYPE": 0, "CLASSIFICATION_TYPE": "U", "NORAD_CAT_ID": 34003, "ELEMENT_SET_NO": 999, "REV_AT_EPOCH": 84606, "BSTAR": 0.00186549, "MEAN_MOTION_DOT": 2.77e-05, "MEAN_MOTION_DDOT": 0}, "tle": {"line1": "1 34003U 93036GN  25359.81353396  .00002770  00000+0  18655-2 0  9995", "line2": "2 34003  74.0775 263.1391 0275364  12.2095 348.5523 13.84221361846068"}}, "geometry": {"type": "Point", "coordinates": [165.6454325893483, -73.98981817898733]}}, {"type": "Feature", "properties": {"norad_id": 34004, "name": "COSMOS 2251 DEB", "group": "cosmos-2251-debris", "lat": -44.55595106819498, "lon": -89.64085531115904, "alt_km": 712.0038874235215, "timestamp": "2025-12-26T19:22:39.302729+00:00", "meta": {"OBJECT_NAME": "COSMOS 2251 DEB", "OBJECT_ID": "1993-036GP", "EPOCH": "2025-12-26T04:40:50.973024", "MEAN_MOTION": 14.49129274, "ECCENTRICITY": 0.00334201, "INCLINATION": 74.0356, "RA_OF_ASC_NODE": 287.8781, "ARG_OF_PERICENTER": 298.3936, "MEAN_ANOMALY": 61.3856, "EPHEMERIS_TYPE": 0, "CLASSIFICATION_TYPE": "U", "NORAD_CAT_ID": 34004, "ELEMENT_SET_NO": 999, "REV_AT_EPOCH": 88225, "BSTAR": 0.0012566003, "MEAN_MOTION_DOT": 4.787e-05, "MEAN_MOTION_DDOT": 0}, "tle": {"line1": "1 34004U 93036GP  25360.19503441  .00004787  00000+0  12566-2 0  9992", "line2": "2 34004  74.0356 287.8781 0033420 298.3936  61.3856 14.49129274882258"}}, "geometry": {"type": "Point", "coordinates": [-89.64085531115904, -44.55595106819498]}}, {"type": "Feature", "properties": {"norad_id": 34005, "name": "COSMOS 2251 DEB", "group": "cosmos-2251-debris", "lat": 34.96425895489702, "lon": -3.8852205102557433, "alt_km": 769.0415004527977, "timestamp": "2025-12-26T19:22:39.302739+00:00", "meta": {"OBJECT_NAME": "COSMOS 2251 DEB", "OBJECT_ID": "1993-036GQ", "EPOCH": "2025-12-26T13:58:14.807712", "MEAN_MOTION": 14.40313944, "ECCENTRICITY": 0.00212459, "INCLINATION": 74.0432, "RA_OF_ASC_NODE": 188.0722, "ARG_OF_PERICENTER": 304.0017, "MEAN_ANOMALY": 111.753, "EPHEMERIS_TYPE": 0, "CLASSIFICATION_TYPE": "U", "NORAD_CAT_ID": 34005, "ELEMENT_SET_NO": 999, "REV_AT_EPOCH": 88578, "BSTAR": 0.00011310078, "MEAN_MOTION_DOT": 3.33e-06, "MEAN_MOTION_DDOT": 0}, "tle": {"line1": "1 34005U 93036GQ  25360.58211583  .00000333  00000+0  11310-3 0  9999", "line2": "2 34005  74.0432 188.0722 0021245 304.0017 111.7530 14.40313944885788"}}, "geometry": {"type": "Point", "coordinates": [-3.8852205102557433, 34.96425895489702]}}, {"type": "Feature", "properties": {"norad_id": 34006, "name": "COSMOS 2251 DEB", "group": "cosmos-2251-debris", "lat": -50.374440485863715, "lon": 94.73604608303211, "alt_km": 587.731378263702, "timestamp": "2025-12-26T19:22:39.302750+00:00", "meta": {"OBJECT_NAME": "COSMOS 2251 DEB", "OBJECT_ID": "1993-036GR", "EPOCH": "2025-12-25T18:35:55.863168", "MEAN_MOTION": 14.95648156, "ECCENTRICITY": 0.00117121, "INCLINATION": 74.0532, "RA_OF_ASC_NODE": 117.0187, "ARG_OF_PERICENTER": 46.7358, "MEAN_ANOMALY": 103.407, "EPHEMERIS_TYPE": 0, "CLASSIFICATION_TYPE": "U", "NORAD_CAT_ID": 34006, "ELEMENT_SET_NO": 999, "REV_AT_EPOCH": 88863, "BSTAR": 0.0036326632, "MEAN_MOTION_DOT": 0.00040646, "MEAN_MOTION_DDOT": 0}, "tle": {"line1": "1 34006U 93036GR  25359.77495212  .00040646  00000+0  36327-2 0  9997", "line2": "2 34006  74.0532 117.0187 0011712  46.7358 103.4070 14.95648156888633"}}, "geometry": {"type": "Point", "coordinates": [94.73604608303211, -50.374440485863715]}}, {"type": "Feature", "properties": {"norad_id": 34007, "name": "COSMOS 2251 DEB", "group": "cosmos-2251-debris", "lat": 31.02334084928332, "lon": 129.89063665202895, "alt_km": 658.4097469711533, "timestamp": "2025-12-26T19:22:39.302760+00:00", "meta": {"OBJECT_NAME": "COSMOS 2251 DEB", "OBJECT_ID": "1993-036GS", "EPOCH": "2025-12-26T05:35:55.099104", "MEAN_MOTION": 14.64882321, "ECCENTRICITY": 0.00442577, "INCLINATION": 74.0197, "RA_OF_ASC_NODE": 320.9195, "ARG_OF_PERICENTER": 91.4788, "MEAN_ANOMALY": 269.1451, "EPHEMERIS_TYPE": 0, "CLASSIFICATION_TYPE": "U", "NORAD_CAT_ID": 34007, "ELEMENT_SET_NO": 999, "REV_AT_EPOCH": 89277, "BSTAR": 0.00080446466, "MEAN_MOTION_DOT": 4.333e-05, "MEAN_MOTION_DDOT": 0}, "tle": {"line1": "1 34007U 93036GS  25360.23327661  .00004333  00000+0  80446-3 0  9998", "line2": "2 34007  74.0197 320.9195 0044257  91.4788 269.1451 14.64882321892772"}}, "geometry": {"type": "Point", "coordinates": [129.89063665202895, 31.02334084928332]}}, {"type": "Feature", "properties": {"norad_id": 34008, "name": "COSMOS 2251 DEB", "group": "cosmos-2251-debris", "lat": 45.84222264734165, "lon": -38.04532007749197, "alt_km": 783.0228420630001, "timestamp": "2025-12-26T19:22:39.302770+00:00", "meta": {"OBJECT_NAME": "COSMOS 2251 DEB", "OBJECT_ID": "1993-036GT", "EPOCH": "2025-12-26T14:56:20.524992", "MEAN_MOTION": 14.33155789, "ECCENTRICITY": 0.00246791, "INCLINATION": 74.035, "RA_OF_ASC_NODE": 305.1463, "ARG_OF_PERICENTER": 298.1813, "MEAN_ANOMALY": 236.1032, "EPHEMERIS_TYPE": 0, "CLASSIFICATION_TYPE": "U", "NORAD_CAT_ID": 34008, "ELEMENT_SET_NO": 999, "REV_AT_EPOCH": 88163, "BSTAR": 0.00013540456, "MEAN_MOTION_DOT": 3.47e-06, "MEAN_MOTION_DDOT": 0}, "tle": {"line1": "1 34008U 93036GT  25360.62245978  .00000347  00000+0  13540-3 0  9994", "line2": "2 34008  74.0350 305.1463 0024679 298.1813 236.1032 14.33155789881637"}}, "geometry": {"type": "Point", "coordinates": [-38.04532007749197, 45.84222264734165]}}, {"type": "Feature", "properties": {"norad_id": 34009, "name": "COSMOS 2251 DEB", "group": "cosmos-2251-debris", "lat": 73.92856572454694, "lon": 34.680574929335236, "alt_km": 767.2712174274238, "timestamp": "2025-12-26T19:22:39.302780+00:00", "meta": {"OBJECT_NAME": "COSMOS 2251 DEB", "OBJECT_ID": "1993-036GU", "EPOCH": "2025-12-26T07:48:31.777920", "MEAN_MOTION": 14.33233263, "ECCENTRICITY": 0.00270465, "INCLINATION": 74.0378, "RA_OF_ASC_NODE": 312.1087, "ARG_OF_PERICENTER": 17.8871, "MEAN_ANOMALY": 103.9021, "EPHEMERIS_TYPE": 0, "CLASSIFICATION_TYPE": "U", "NORAD_CAT_ID": 34009, "ELEMENT_SET_NO": 999, "REV_AT_EPOCH": 88140, "BSTAR": 0.00016577437, "MEAN_MOTION_DOT": 4.32e-06, "MEAN_MOTION_DDOT": 0}, "tle": {"line1": "1 34009U 93036GU  25360.32536780  .00000432  00000+0  16577-3 0  9994", "line2": "2 34009  74.0378 312.1087 0027046  17.8871 103.9021 14.33233263881407"}}, "geometry": {"type": "Point", "coordinates": [34.680574929335236, 73.92856572454694]}}, {"type": "Feature", "properties": {"norad_id": 34010, "name": "COSMOS 2251 DEB", "group": "cosmos-2251-debris", "lat": 21.862103105497383, "lon": -99.62639226753177, "alt_km": 499.2355150190897, "timestamp": "2025-12-26T19:22:39.302791+00:00", "meta": {"OBJECT_NAME": "COSMOS 2251 DEB", "OBJECT_ID": "1993-036GV", "EPOCH": "2025-12-26T03:29:31.387488", "MEAN_MOTION": 15.20965145, "ECCENTRICITY": 0.00048609, "INCLINATION": 73.996, "RA_OF_ASC_NODE": 255.153, "ARG_OF_PERICENTER": 56.4406, "MEAN_ANOMALY": 303.7255, "EPHEMERIS_TYPE": 0, "CLASSIFICATION_TYPE": "U", "NORAD_CAT_ID": 34010, "ELEMENT_SET_NO": 999, "REV_AT_EPOCH": 89489, "BSTAR": 0.0037296463, "MEAN_MOTION_DOT": 0.00083596, "MEAN_MOTION_DDOT": 0}, "tle": {"line1": "1 34010U 93036GV  25360.14550217  .00083596  00000+0  37296-2 0  9999", "line2": "2 34010  73.9960 255.1530 0004860  56.4406 303.7255 15.20965145894899"}}, "geometry": {"type": "Point", "coordinates": [-99.62639226753177, 21.862103105497383]}}, {"type": "Feature", "properties": {"norad_id": 34011, "name": "COSMOS 2251 DEB", "group": "cosmos-2251-debris", "lat": 12.075804891401944, "lon": 120.52784836810208, "alt_km": 774.1697869667805, "timestamp": "2025-12-26T19:22:39.302801+00:00", "meta": {"OBJECT_NAME": "COSMOS 2251 DEB", "OBJECT_ID": "1993-036GW", "EPOCH": "2025-12-26T06:56:58.562880", "MEAN_MOTION": 14.41833562, "ECCENTRICITY": 0.00364044, "INCLINATION": 74.0149, "RA_OF_ASC_NODE": 305.0043, "ARG_OF_PERICENTER": 24.9822, "MEAN_ANOMALY": 335.3085, "EPHEMERIS_TYPE": 0, "CLASSIFICATION_TYPE": "U", "NORAD_CAT_ID": 34011, "ELEMENT_SET_NO": 999, "REV_AT_EPOCH": 88111, "BSTAR": 0.00082640809, "MEAN_MOTION_DOT": 2.698e-05, "MEAN_MOTION_DDOT": 0}, "tle": {"line1": "1 34011U 93036GW  25360.28956670  .00002698  00000+0  82641-3 0  9997", "line2": "2 34011  74.0149 305.0043 0036404  24.9822 335.3085 14.41833562881118"}}, "geometry": {"type": "Point", "coordinates": [120.52784836810208, 12.075804891401944]}}]}